{
  "type": "FeatureCollection",
  "generator": "overpass-turbo",
  "copyright": "The data included in this document is from www.openstreetmap.org. The data is made available under ODbL.",
  "timestamp": "2025-09-11T09:20:57Z",
  "features": [
    {
      "type": "Feature",
      "properties": {
        "@id": "node/791016117",
        "highway": "traffic_signals"
      },
      "geometry": {
        "type": "Point",
        "coordinates": [
          120.6388816,
          24.1801703
        ]
      },
      "id": "node/791016117"
    },
    {
      "type": "Feature",
      "properties": {
        "@id": "node/1167823696",
        "highway": "traffic_signals"
      },
      "geometry": {
        "type": "Point",
        "coordinates": [
          120.6379901,
          24.1807342
        ]
      },
      "id": "node/1167823696"
    },
    {
      "type": "Feature",
      "properties": {
        "@id": "node/2138606460",
        "highway": "traffic_signals"
      },
      "geometry": {
        "type": "Point",
        "coordinates": [
          120.6425502,
          24.1815233
        ]
      },
      "id": "node/2138606460"
    },
    {
      "type": "Feature",
      "properties": {
        "@id": "node/2138606465",
        "highway": "traffic_signals",
        "traffic_signals:direction": "both"
      },
      "geometry": {
        "type": "Point",
        "coordinates": [
          120.6414803,
          24.1822738
        ]
      },
      "id": "node/2138606465"
    },
    {
      "type": "Feature",
      "properties": {
        "@id": "node/2386180171",
        "highway": "traffic_signals",
        "traffic_signals:direction": "both"
      },
      "geometry": {
        "type": "Point",
        "coordinates": [
          120.6425227,
          24.1822708
        ]
      },
      "id": "node/2386180171"
    },
    {
      "type": "Feature",
      "properties": {
        "@id": "node/2386180186",
        "highway": "traffic_signals"
      },
      "geometry": {
        "type": "Point",
        "coordinates": [
          120.6396043,
          24.1822442
        ]
      },
      "id": "node/2386180186"
    },
    {
      "type": "Feature",
      "properties": {
        "@id": "node/2386180270",
        "highway": "traffic_signals"
      },
      "geometry": {
        "type": "Point",
        "coordinates": [
          120.6395257,
          24.1836649
        ]
      },
      "id": "node/2386180270"
    },
    {
      "type": "Feature",
      "properties": {
        "@id": "node/2386180289",
        "highway": "traffic_signals"
      },
      "geometry": {
        "type": "Point",
        "coordinates": [
          120.6388685,
          24.1822252
        ]
      },
      "id": "node/2386180289"
    },
    {
      "type": "Feature",
      "properties": {
        "@id": "node/5323257792",
        "highway": "traffic_signals",
        "traffic_signals": "signal",
        "traffic_signals:direction": "forward"
      },
      "geometry": {
        "type": "Point",
        "coordinates": [
          120.6460712,
          24.1850444
        ]
      },
      "id": "node/5323257792"
    },
    {
      "type": "Feature",
      "properties": {
        "@id": "node/8175901979",
        "highway": "traffic_signals",
        "traffic_signals": "signal",
        "traffic_signals:direction": "forward"
      },
      "geometry": {
        "type": "Point",
        "coordinates": [
          120.6461855,
          24.1852833
        ]
      },
      "id": "node/8175901979"
    },
    {
      "type": "Feature",
      "properties": {
        "@id": "node/8175901980",
        "highway": "traffic_signals",
        "traffic_signals": "signal",
        "traffic_signals:direction": "backward"
      },
      "geometry": {
        "type": "Point",
        "coordinates": [
          120.6462235,
          24.1849031
        ]
      },
      "id": "node/8175901980"
    },
    {
      "type": "Feature",
      "properties": {
        "@id": "node/8175901982",
        "highway": "traffic_signals",
        "traffic_signals": "signal",
        "traffic_signals:direction": "backward"
      },
      "geometry": {
        "type": "Point",
        "coordinates": [
          120.6463198,
          24.1851347
        ]
      },
      "id": "node/8175901982"
    },
    {
      "type": "Feature",
      "properties": {
        "@id": "node/8175901983",
        "highway": "traffic_signals",
        "traffic_signals": "signal",
        "traffic_signals:direction": "forward"
      },
      "geometry": {
        "type": "Point",
        "coordinates": [
          120.6445411,
          24.1852893
        ]
      },
      "id": "node/8175901983"
    },
    {
      "type": "Feature",
      "properties": {
        "@id": "node/8175901984",
        "highway": "traffic_signals",
        "traffic_signals": "signal",
        "traffic_signals:direction": "forward"
      },
      "geometry": {
        "type": "Point",
        "coordinates": [
          120.6447869,
          24.1851502
        ]
      },
      "id": "node/8175901984"
    },
    {
      "type": "Feature",
      "properties": {
        "@id": "node/8175901986",
        "highway": "traffic_signals",
        "traffic_signals": "signal",
        "traffic_signals:direction": "backward"
      },
      "geometry": {
        "type": "Point",
        "coordinates": [
          120.6445829,
          24.1849175
        ]
      },
      "id": "node/8175901986"
    },
    {
      "type": "Feature",
      "properties": {
        "@id": "node/8175901987",
        "highway": "traffic_signals",
        "traffic_signals": "signal",
        "traffic_signals:direction": "forward"
      },
      "geometry": {
        "type": "Point",
        "coordinates": [
          120.6444019,
          24.185086
        ]
      },
      "id": "node/8175901987"
    },
    {
      "type": "Feature",
      "properties": {
        "@id": "node/8175901998",
        "highway": "traffic_signals",
        "traffic_signals": "signal",
        "traffic_signals:direction": "forward"
      },
      "geometry": {
        "type": "Point",
        "coordinates": [
          120.64257,
          24.1851507
        ]
      },
      "id": "node/8175901998"
    },
    {
      "type": "Feature",
      "properties": {
        "@id": "node/8175902001",
        "highway": "traffic_signals",
        "traffic_signals": "signal",
        "traffic_signals:direction": "forward"
      },
      "geometry": {
        "type": "Point",
        "coordinates": [
          120.6423046,
          24.1850629
        ]
      },
      "id": "node/8175902001"
    },
    {
      "type": "Feature",
      "properties": {
        "@id": "node/8175902002",
        "highway": "traffic_signals",
        "traffic_signals": "signal",
        "traffic_signals:direction": "backward"
      },
      "geometry": {
        "type": "Point",
        "coordinates": [
          120.6424208,
          24.184909
        ]
      },
      "id": "node/8175902002"
    },
    {
      "type": "Feature",
      "properties": {
        "@id": "node/8175902003",
        "highway": "traffic_signals",
        "traffic_signals": "signal",
        "traffic_signals:direction": "forward"
      },
      "geometry": {
        "type": "Point",
        "coordinates": [
          120.6414002,
          24.1852612
        ]
      },
      "id": "node/8175902003"
    },
    {
      "type": "Feature",
      "properties": {
        "@id": "node/8175902004",
        "highway": "traffic_signals",
        "traffic_signals": "signal",
        "traffic_signals:direction": "forward"
      },
      "geometry": {
        "type": "Point",
        "coordinates": [
          120.6415938,
          24.18514
        ]
      },
      "id": "node/8175902004"
    },
    {
      "type": "Feature",
      "properties": {
        "@id": "node/8175902007",
        "highway": "traffic_signals",
        "traffic_signals": "signal",
        "traffic_signals:direction": "backward"
      },
      "geometry": {
        "type": "Point",
        "coordinates": [
          120.6414066,
          24.1849322
        ]
      },
      "id": "node/8175902007"
    },
    {
      "type": "Feature",
      "properties": {
        "@id": "node/8175902008",
        "highway": "traffic_signals",
        "traffic_signals": "signal",
        "traffic_signals:direction": "forward"
      },
      "geometry": {
        "type": "Point",
        "coordinates": [
          120.641254,
          24.1850513
        ]
      },
      "id": "node/8175902008"
    },
    {
      "type": "Feature",
      "properties": {
        "@id": "node/8175902009",
        "highway": "traffic_signals",
        "traffic_signals": "signal",
        "traffic_signals:direction": "forward"
      },
      "geometry": {
        "type": "Point",
        "coordinates": [
          120.6409957,
          24.1851334
        ]
      },
      "id": "node/8175902009"
    },
    {
      "type": "Feature",
      "properties": {
        "@id": "node/8175902010",
        "highway": "traffic_signals",
        "traffic_signals": "signal",
        "traffic_signals:direction": "backward"
      },
      "geometry": {
        "type": "Point",
        "coordinates": [
          120.6408514,
          24.1852331
        ]
      },
      "id": "node/8175902010"
    },
    {
      "type": "Feature",
      "properties": {
        "@id": "node/8175902013",
        "highway": "traffic_signals",
        "traffic_signals": "signal",
        "traffic_signals:direction": "forward"
      },
      "geometry": {
        "type": "Point",
        "coordinates": [
          120.6407355,
          24.1850456
        ]
      },
      "id": "node/8175902013"
    },
    {
      "type": "Feature",
      "properties": {
        "@id": "node/8175902014",
        "highway": "traffic_signals",
        "traffic_signals": "signal",
        "traffic_signals:direction": "backward"
      },
      "geometry": {
        "type": "Point",
        "coordinates": [
          120.6399955,
          24.1852976
        ]
      },
      "id": "node/8175902014"
    },
    {
      "type": "Feature",
      "properties": {
        "@id": "node/8175902015",
        "highway": "traffic_signals",
        "traffic_signals": "signal",
        "traffic_signals:direction": "forward"
      },
      "geometry": {
        "type": "Point",
        "coordinates": [
          120.6401114,
          24.1851237
        ]
      },
      "id": "node/8175902015"
    },
    {
      "type": "Feature",
      "properties": {
        "@id": "node/8175902018",
        "highway": "traffic_signals",
        "traffic_signals": "signal",
        "traffic_signals:direction": "forward"
      },
      "geometry": {
        "type": "Point",
        "coordinates": [
          120.6398947,
          24.1849022
        ]
      },
      "id": "node/8175902018"
    },
    {
      "type": "Feature",
      "properties": {
        "@id": "node/8175902019",
        "highway": "traffic_signals",
        "traffic_signals": "signal",
        "traffic_signals:direction": "forward"
      },
      "geometry": {
        "type": "Point",
        "coordinates": [
          120.6397727,
          24.1850772
        ]
      },
      "id": "node/8175902019"
    },
    {
      "type": "Feature",
      "properties": {
        "@id": "node/8175902020",
        "highway": "traffic_signals",
        "traffic_signals": "signal",
        "traffic_signals:direction": "forward"
      },
      "geometry": {
        "type": "Point",
        "coordinates": [
          120.6387567,
          24.1855433
        ]
      },
      "id": "node/8175902020"
    },
    {
      "type": "Feature",
      "properties": {
        "@id": "node/8175902022",
        "highway": "traffic_signals",
        "traffic_signals": "signal",
        "traffic_signals:direction": "forward"
      },
      "geometry": {
        "type": "Point",
        "coordinates": [
          120.6388306,
          24.1853844
        ]
      },
      "id": "node/8175902022"
    },
    {
      "type": "Feature",
      "properties": {
        "@id": "node/8175902024",
        "highway": "traffic_signals",
        "traffic_signals": "signal",
        "traffic_signals:direction": "backward"
      },
      "geometry": {
        "type": "Point",
        "coordinates": [
          120.6386025,
          24.1852191
        ]
      },
      "id": "node/8175902024"
    },
    {
      "type": "Feature",
      "properties": {
        "@id": "node/8175902025",
        "highway": "traffic_signals",
        "traffic_signals": "signal",
        "traffic_signals:direction": "forward"
      },
      "geometry": {
        "type": "Point",
        "coordinates": [
          120.6384966,
          24.1853694
        ]
      },
      "id": "node/8175902025"
    },
    {
      "type": "Feature",
      "properties": {
        "@id": "node/8175902027",
        "highway": "traffic_signals",
        "traffic_signals": "signal",
        "traffic_signals:direction": "forward"
      },
      "geometry": {
        "type": "Point",
        "coordinates": [
          120.6377826,
          24.1856243
        ]
      },
      "id": "node/8175902027"
    },
    {
      "type": "Feature",
      "properties": {
        "@id": "node/8175902082",
        "highway": "traffic_signals",
        "traffic_signals": "signal",
        "traffic_signals:direction": "forward"
      },
      "geometry": {
        "type": "Point",
        "coordinates": [
          120.6446246,
          24.1845436
        ]
      },
      "id": "node/8175902082"
    },
    {
      "type": "Feature",
      "properties": {
        "@id": "node/8175902083",
        "highway": "traffic_signals",
        "traffic_signals": "signal",
        "traffic_signals:direction": "backward"
      },
      "geometry": {
        "type": "Point",
        "coordinates": [
          120.6447836,
          24.1844047
        ]
      },
      "id": "node/8175902083"
    },
    {
      "type": "Feature",
      "properties": {
        "@id": "node/8175902084",
        "highway": "traffic_signals",
        "traffic_signals": "signal",
        "traffic_signals:direction": "forward"
      },
      "geometry": {
        "type": "Point",
        "coordinates": [
          120.6445112,
          24.1844029
        ]
      },
      "id": "node/8175902084"
    },
    {
      "type": "Feature",
      "properties": {
        "@id": "node/8175902085",
        "highway": "traffic_signals",
        "traffic_signals": "signal",
        "traffic_signals:direction": "backward"
      },
      "geometry": {
        "type": "Point",
        "coordinates": [
          120.6446613,
          24.1842746
        ]
      },
      "id": "node/8175902085"
    },
    {
      "type": "Feature",
      "properties": {
        "@id": "node/8175902094",
        "highway": "traffic_signals",
        "traffic_signals": "signal",
        "traffic_signals:direction": "backward"
      },
      "geometry": {
        "type": "Point",
        "coordinates": [
          120.644937,
          24.1837154
        ]
      },
      "id": "node/8175902094"
    },
    {
      "type": "Feature",
      "properties": {
        "@id": "node/8175902095",
        "highway": "traffic_signals",
        "traffic_signals": "signal",
        "traffic_signals:direction": "forward"
      },
      "geometry": {
        "type": "Point",
        "coordinates": [
          120.6447207,
          24.1838644
        ]
      },
      "id": "node/8175902095"
    },
    {
      "type": "Feature",
      "properties": {
        "@id": "node/8175902096",
        "highway": "traffic_signals",
        "traffic_signals": "signal",
        "traffic_signals:direction": "forward"
      },
      "geometry": {
        "type": "Point",
        "coordinates": [
          120.6445604,
          24.1837165
        ]
      },
      "id": "node/8175902096"
    },
    {
      "type": "Feature",
      "properties": {
        "@id": "node/8175902097",
        "highway": "traffic_signals",
        "traffic_signals": "signal",
        "traffic_signals:direction": "backward"
      },
      "geometry": {
        "type": "Point",
        "coordinates": [
          120.6447587,
          24.1836068
        ]
      },
      "id": "node/8175902097"
    },
    {
      "type": "Feature",
      "properties": {
        "@id": "node/8175902105",
        "highway": "traffic_signals",
        "traffic_signals": "signal",
        "traffic_signals:direction": "forward"
      },
      "geometry": {
        "type": "Point",
        "coordinates": [
          120.6448202,
          24.183165
        ]
      },
      "id": "node/8175902105"
    },
    {
      "type": "Feature",
      "properties": {
        "@id": "node/8175902106",
        "highway": "traffic_signals",
        "traffic_signals": "signal",
        "traffic_signals:direction": "forward"
      },
      "geometry": {
        "type": "Point",
        "coordinates": [
          120.6446526,
          24.1830327
        ]
      },
      "id": "node/8175902106"
    },
    {
      "type": "Feature",
      "properties": {
        "@id": "node/8175902107",
        "highway": "traffic_signals",
        "traffic_signals": "signal",
        "traffic_signals:direction": "backward"
      },
      "geometry": {
        "type": "Point",
        "coordinates": [
          120.644847,
          24.1829377
        ]
      },
      "id": "node/8175902107"
    },
    {
      "type": "Feature",
      "properties": {
        "@id": "node/8175902113",
        "highway": "traffic_signals",
        "traffic_signals": "signal",
        "traffic_signals:direction": "forward"
      },
      "geometry": {
        "type": "Point",
        "coordinates": [
          120.6450951,
          24.1827906
        ]
      },
      "id": "node/8175902113"
    },
    {
      "type": "Feature",
      "properties": {
        "@id": "node/8175902114",
        "highway": "traffic_signals",
        "traffic_signals": "signal",
        "traffic_signals:direction": "forward"
      },
      "geometry": {
        "type": "Point",
        "coordinates": [
          120.6448574,
          24.1828489
        ]
      },
      "id": "node/8175902114"
    },
    {
      "type": "Feature",
      "properties": {
        "@id": "node/8175902115",
        "highway": "traffic_signals",
        "traffic_signals": "signal",
        "traffic_signals:direction": "backward"
      },
      "geometry": {
        "type": "Point",
        "coordinates": [
          120.644884,
          24.1826844
        ]
      },
      "id": "node/8175902115"
    },
    {
      "type": "Feature",
      "properties": {
        "@id": "node/8175902116",
        "highway": "traffic_signals",
        "traffic_signals": "signal",
        "traffic_signals:direction": "forward"
      },
      "geometry": {
        "type": "Point",
        "coordinates": [
          120.6449102,
          24.182464
        ]
      },
      "id": "node/8175902116"
    },
    {
      "type": "Feature",
      "properties": {
        "@id": "node/8175902117",
        "highway": "traffic_signals",
        "traffic_signals": "signal",
        "traffic_signals:direction": "forward"
      },
      "geometry": {
        "type": "Point",
        "coordinates": [
          120.6447733,
          24.1823281
        ]
      },
      "id": "node/8175902117"
    },
    {
      "type": "Feature",
      "properties": {
        "@id": "node/8175902125",
        "highway": "traffic_signals",
        "traffic_signals": "signal",
        "traffic_signals:direction": "backward"
      },
      "geometry": {
        "type": "Point",
        "coordinates": [
          120.6450061,
          24.1821338
        ]
      },
      "id": "node/8175902125"
    },
    {
      "type": "Feature",
      "properties": {
        "@id": "node/8175902134",
        "highway": "traffic_signals",
        "traffic_signals": "signal",
        "traffic_signals:direction": "forward"
      },
      "geometry": {
        "type": "Point",
        "coordinates": [
          120.6450279,
          24.1819209
        ]
      },
      "id": "node/8175902134"
    },
    {
      "type": "Feature",
      "properties": {
        "@id": "node/8175902135",
        "highway": "traffic_signals",
        "traffic_signals": "signal",
        "traffic_signals:direction": "backward"
      },
      "geometry": {
        "type": "Point",
        "coordinates": [
          120.6451645,
          24.1818101
        ]
      },
      "id": "node/8175902135"
    },
    {
      "type": "Feature",
      "properties": {
        "@id": "node/8175902136",
        "highway": "traffic_signals",
        "traffic_signals": "signal",
        "traffic_signals:direction": "forward"
      },
      "geometry": {
        "type": "Point",
        "coordinates": [
          120.6448141,
          24.1817715
        ]
      },
      "id": "node/8175902136"
    },
    {
      "type": "Feature",
      "properties": {
        "@id": "node/8175902137",
        "highway": "traffic_signals",
        "traffic_signals": "signal",
        "traffic_signals:direction": "backward"
      },
      "geometry": {
        "type": "Point",
        "coordinates": [
          120.6450374,
          24.1816787
        ]
      },
      "id": "node/8175902137"
    },
    {
      "type": "Feature",
      "properties": {
        "@id": "node/8806937646",
        "highway": "traffic_signals",
        "traffic_signals:direction": "both"
      },
      "geometry": {
        "type": "Point",
        "coordinates": [
          120.6450854,
          24.1804698
        ]
      },
      "id": "node/8806937646"
    }
  ]
}